CCSDS_OEM_VERS = 1.0
CREATION_DATE  = 2017-05-11T11:53:23
ORIGINATOR     = GMAT USER

META_START
OBJECT_NAME          = MOPSSat_alt_35785_km_RAAN_270_042
OBJECT_ID            = SatId
CENTER_NAME          = Earth
REF_FRAME            = EME2000
TIME_SYSTEM          = UTC
START_TIME           = 2017-01-01T00:00:00.000
USEABLE_START_TIME   = 2017-01-01T00:00:00.000
USEABLE_STOP_TIME    = 2017-01-02T00:00:00.000
STOP_TIME            = 2017-01-02T00:00:00.000
INTERPOLATION        = Lagrange
INTERPOLATION_DEGREE = 7 
META_STOP


                                                                                   

2017-01-01T01:04:10.000   1.168261297148784e+04  -4.051318189984812e+04  -3.100685721960731e-02   2.954307237917182e+00   8.519263502899077e-01  -1.642848090684771e-05
2017-01-01T01:04:20.000   1.171215293477143e+04  -4.050465186553999e+04  -3.117136503980885e-02   2.953685259739427e+00   8.540804653998649e-01  -1.647308435402360e-05
2017-01-01T01:04:30.000   1.174168667048580e+04  -4.049610029233188e+04  -3.133631891421555e-02   2.953061710848618e+00   8.562341263026372e-01  -1.651769166648527e-05
2017-01-01T01:04:40.000   1.177121416304052e+04  -4.048752718473849e+04  -3.150171888186934e-02   2.952436591573888e+00   8.583873318613422e-01  -1.656230279466554e-05
2017-01-01T01:04:50.000   1.180073539681392e+04  -4.047893254729477e+04  -3.166756498114782e-02   2.951809902245838e+00   8.605400809368194e-01  -1.660691768892946e-05
2017-01-01T01:05:00.000   1.183025035611882e+04  -4.047031638456739e+04  -3.183385724953750e-02   2.951181643197391e+00   8.626923723851311e-01  -1.665153629951939e-05
2017-01-01T01:05:10.000   1.185975902529201e+04  -4.046167870112813e+04  -3.200059572415163e-02   2.950551814761834e+00   8.648442050640861e-01  -1.669615857669045e-05
2017-01-01T01:05:20.000   1.188926138830602e+04  -4.045301950166965e+04  -3.216778043948924e-02   2.949920417281276e+00   8.669955778049325e-01  -1.674078447012495e-05
2017-01-01T01:05:30.000   1.191875742923976e+04  -4.044433879086558e+04  -3.233541143014056e-02   2.949287451096433e+00   8.691464894466732e-01  -1.678541392964160e-05
2017-01-01T01:05:40.000   1.194824713210339e+04  -4.043563657342228e+04  -3.250348872978576e-02   2.948652916550412e+00   8.712969388233006e-01  -1.683004690493293e-05
2017-01-01T01:05:50.000   1.197773048151681e+04  -4.042691285387898e+04  -3.267201237505558e-02   2.948016813974129e+00   8.734469248132676e-01  -1.687468334658215e-05
2017-01-01T01:06:00.000   1.200720746203284e+04  -4.041816763680689e+04  -3.284098240168421e-02   2.947379143700838e+00   8.755964462901389e-01  -1.691932320505008e-05
2017-01-01T01:06:10.000   1.203667805829079e+04  -4.040940092676455e+04  -3.301039884537234e-02   2.946739906062866e+00   8.777455021337820e-01  -1.696396643090255e-05
2017-01-01T01:06:20.000   1.206614225463381e+04  -4.040061272840839e+04  -3.318026173965470e-02   2.946099101399676e+00   8.798940912024702e-01  -1.700861297424813e-05
2017-01-01T01:06:30.000   1.209560003539322e+04  -4.039180304641144e+04  -3.335057111746550e-02   2.945456730051945e+00   8.820422123536141e-01  -1.705326278515118e-05
2017-01-01T01:06:40.000   1.212505138488816e+04  -4.038297188546216e+04  -3.352132701116292e-02   2.944812792361474e+00   8.841898644437355e-01  -1.709791581363803e-05
2017-01-01T01:06:50.000   1.215449628714326e+04  -4.037411925035223e+04  -3.369252945082798e-02   2.944167288677588e+00   8.863370463078797e-01  -1.714257200924984e-05
2017-01-01T01:07:00.000   1.218393472626928e+04  -4.036524514585933e+04  -3.386417846653189e-02   2.943520219348600e+00   8.884837567873726e-01  -1.718723132163876e-05
2017-01-01T01:07:10.000   1.221336668631304e+04  -4.035634957679314e+04  -3.403627408745021e-02   2.942871584725145e+00   8.906299947188784e-01  -1.723189370033369e-05
2017-01-01T01:07:20.000   1.224279215192170e+04  -4.034743254779451e+04  -3.420881634574333e-02   2.942221385145559e+00   8.927757589828371e-01  -1.727655909576555e-05
2017-01-01T01:07:30.000   1.227221110767841e+04  -4.033849406353596e+04  -3.438180527268000e-02   2.941569620950477e+00   8.949210484550243e-01  -1.732122745824219e-05
2017-01-01T01:07:40.000   1.230162353825270e+04  -4.032953412867676e+04  -3.455524089950513e-02   2.940916292479576e+00   8.970658620175117e-01  -1.736589873818252e-05
2017-01-01T01:07:50.000   1.233102942801862e+04  -4.032055274797598e+04  -3.472912325525536e-02   2.940261400079804e+00   8.992101985308244e-01  -1.741057288552140e-05
2017-01-01T01:08:00.000   1.236042876133849e+04  -4.031154992620939e+04  -3.490345236836322e-02   2.939604944099332e+00   9.013540568546320e-01  -1.745524985015571e-05
2017-01-01T01:08:10.000   1.238982152256254e+04  -4.030252566816825e+04  -3.507822826668138e-02   2.938946924887459e+00   9.034974358477240e-01  -1.749992958193847e-05
2017-01-01T01:08:20.000   1.241920769574720e+04  -4.029347997874893e+04  -3.525345097574301e-02   2.938287342801150e+00   9.056403343474630e-01  -1.754461203026564e-05
2017-01-01T01:08:30.000   1.244858726503490e+04  -4.028441286283341e+04  -3.542912052108117e-02   2.937626198196315e+00   9.077827511974845e-01  -1.758929714463841e-05
2017-01-01T01:08:40.000   1.247796021450155e+04  -4.027532432533678e+04  -3.560523692730497e-02   2.936963491431285e+00   9.099246852365716e-01  -1.763398487443697e-05
2017-01-01T01:08:50.000   1.250732652883045e+04  -4.026621437099884e+04  -3.578180022213921e-02   2.936299222851607e+00   9.120661353478016e-01  -1.767867516992907e-05
2017-01-01T01:09:00.000   1.253668619263662e+04  -4.025708300459295e+04  -3.595881043237817e-02   2.935633392805276e+00   9.142071004092701e-01  -1.772336798125903e-05
2017-01-01T01:09:10.000   1.256603919064128e+04  -4.024793023087225e+04  -3.613626758492545e-02   2.934966001638813e+00   9.163475793068188e-01  -1.776806325870707e-05
2017-01-01T01:09:20.000   1.259538550720241e+04  -4.023875605471341e+04  -3.631417170401071e-02   2.934297049707745e+00   9.184875708998012e-01  -1.781276095199247e-05
2017-01-01T01:09:30.000   1.262472512670228e+04  -4.022956048099847e+04  -3.649252281347802e-02   2.933626537367993e+00   9.206270740493415e-01  -1.785746101084585e-05
2017-01-01T01:09:40.000   1.265405803346097e+04  -4.022034351464104e+04  -3.667132093627731e-02   2.932954464977779e+00   9.227660876120274e-01  -1.790216338488340e-05
2017-01-01T01:09:50.000   1.268338421176025e+04  -4.021110516058059e+04  -3.685056609457274e-02   2.932280832897208e+00   9.249046104416547e-01  -1.794686802362790e-05
2017-01-01T01:10:00.000   1.271270364587247e+04  -4.020184542377196e+04  -3.703025830994850e-02   2.931605641487512e+00   9.270426413913309e-01  -1.799157487656759e-05
2017-01-01T01:10:10.000   1.274201632007113e+04  -4.019256430918216e+04  -3.721039760346928e-02   2.930928891110807e+00   9.291801793142500e-01  -1.803628389316781e-05
2017-01-01T01:10:20.000   1.277132221873602e+04  -4.018326182175798e+04  -3.739098399630988e-02   2.930250582127734e+00   9.313172230713525e-01  -1.808099502304164e-05
2017-01-01T01:10:30.000   1.280062132628297e+04  -4.017393796644706e+04  -3.757201750934407e-02   2.929570714898999e+00   9.334537715262111e-01  -1.812570821583338e-05
2017-01-01T01:10:40.000   1.282991362716400e+04  -4.016459274819826e+04  -3.775349816314019e-02   2.928889289785394e+00   9.355898235450342e-01  -1.817042342122160e-05
2017-01-01T01:10:50.000   1.285919910593684e+04  -4.015522617193842e+04  -3.793542597841114e-02   2.928206307146108e+00   9.377253780017414e-01  -1.821514058901941e-05
2017-01-01T01:11:00.000   1.288847774716041e+04  -4.014583824260646e+04  -3.811780097535231e-02   2.927521767341211e+00   9.398604337703376e-01  -1.825985966902054e-05
2017-01-01T01:11:10.000   1.291774953538436e+04  -4.013642896515691e+04  -3.830062317357183e-02   2.926835670731909e+00   9.419949897241505e-01  -1.830458061098174e-05
2017-01-01T01:11:20.000   1.294701445511941e+04  -4.012699834456791e+04  -3.848389259193685e-02   2.926148017681136e+00   9.441290447336705e-01  -1.834930336458096e-05
2017-01-01T01:11:30.000   1.297627249081453e+04  -4.011754638585049e+04  -3.866760924839290e-02   2.925458808554213e+00   9.462625976648869e-01  -1.839402787937939e-05
2017-01-01T01:11:40.000   1.300552362694282e+04  -4.010807309401989e+04  -3.885177316051787e-02   2.924768043716780e+00   9.483956473855438e-01  -1.843875410495282e-05
2017-01-01T01:11:50.000   1.303476784761671e+04  -4.009857847422265e+04  -3.903638434305112e-02   2.924075723544044e+00   9.505281927370879e-01  -1.848348199030481e-05
2017-01-01T01:12:00.000   1.306400513705438e+04  -4.008906253158325e+04  -3.922144281087737e-02   2.923381848409607e+00   9.526602325686764e-01  -1.852821148457749e-05
2017-01-01T01:12:10.000   1.309323547940628e+04  -4.007952527126079e+04  -3.940694857792187e-02   2.922686418689596e+00   9.547917657245272e-01  -1.857294253678839e-05
2017-01-01T01:12:20.000   1.312245885942754e+04  -4.006996669823005e+04  -3.959290166141205e-02   2.921989434746694e+00   9.569227910929528e-01  -1.861767509684973e-05
2017-01-01T01:12:30.000   1.315167526180722e+04  -4.006038681749962e+04  -3.977930207763045e-02   2.921290896946052e+00   9.590533075574482e-01  -1.866240911455284e-05
2017-01-01T01:12:40.000   1.318088467132040e+04  -4.005078563406300e+04  -3.996614984286847e-02   2.920590805651726e+00   9.611833140077801e-01  -1.870714453979631e-05
2017-01-01T01:12:50.000   1.321008707244895e+04  -4.004116315301995e+04  -4.015344497106818e-02   2.919889161235511e+00   9.633128093123338e-01  -1.875188132202170e-05
2017-01-01T01:13:00.000   1.323928244966335e+04  -4.003151937948717e+04  -4.034118747555544e-02   2.919185964070445e+00   9.654417923386661e-01  -1.879661941062836e-05
2017-01-01T01:13:10.000   1.326847078742240e+04  -4.002185431859710e+04  -4.052937736906422e-02   2.918481214530709e+00   9.675702619534777e-01  -1.884135875497917e-05
